#dP2021  1 29  0  0  0.00000000      96 __u+U ITR00 FIT  IAC
## 2142 432000.00000000   900.00000000 59243 0.0000000000000
+  127   C01C02C03C04C05C06C07C08C09C10C11C12C13C14C16C19C20
+        C21C22C23C24C25C26C27C28C29C30C32C33C34C35C36C37C38
+        C39C40C41C42C43C44C45C46C60E01E02E03E04E05E07E08E09
+        E11E12E13E14E15E18E19E21E24E25E26E27E30E31E33E36G01
+        G02G03G04G05G06G07G08G09G10G11G12G13G14G15G16G17G18
+        G19G20G21G22G23G24G25G26G27G28G29G30G31G32J01J02J03
+        J07R01R02R03R04R05R06R07R08R09R10R11R12R13R14R15R16
+        R17R18R19R20R21R22R23R24  0  0  0  0  0  0  0  0  0
++        13 13  0 13 13  8  9  9  8  8  8  8  8  7  8  8  8
++         8  8  8  8  8  8  8  8  8  8  9  8  8  9  9  8 10
++        10 10  9  8  9  9  9  9 14  4  4  4  5  4  4  4  5
++         4  5  4  4  4  4  5  4  4  4  5  4  4  5  5  5  3
++         4  4  4  4  4  4  4  4  3  0  4  4  3  4  4  4  4
++         4  4  4  4  4  3  4  4  4  4  4  4  4  4  9  8  8
++        14  6  6  6  6  6 13  6  6  9 13  7  5  7  6  6  6
++         6  6  7  7  6  7 13  6  0  0  0  0  0  0  0  0  0
%c M  cc GPS ccc cccc cccc cccc cccc ccccc ccccc ccccc ccccc
%c cc cc ccc ccc cccc cccc cccc cccc ccccc ccccc ccccc ccccc
%f  0.0000000  0.000000000  0.00000000000  0.000000000000000
%f  0.0000000  0.000000000  0.00000000000  0.000000000000000
%i    0    0    0    0      0      0      0      0         0
%i    0    0    0    0      0      0      0      0         0
/* INFORMATION & ANALYSIS CENTER (IAC)            RAPID DATA
/* S/V CLOCKS ARE ALIGNED TO GNSS TIME                      
/* G:C1WC2W R:C1PC2P E:C1XC5X C:C2IC6I J:C1CC2S             
/* PCV:IGS14_2134 OL/AL:FES2004  NONE     YN ORB:CoN CLK:CoN
*  2021 01 29  7  0  0.00000000
PC01 -34405.175411  24421.492087    315.683396   -707.562919
PC02   4438.327036  41881.735027   -972.328784    556.394037
PC03      0.000000      0.000000      0.000000 999999.999999
PC04 -39671.645234  14337.853480   -219.422887   -503.663884
PC05  21926.222654  35984.331891   -948.427787   -647.492507
PC06 -20364.542956  35930.647767   7598.031418     44.514815
PC07  -7239.245650  32236.358779  26705.824417   -273.265319
PC08 -18260.800611  17962.144971 -33469.951762   -924.340437
PC09  -9582.961365  35180.089186  21056.215912    770.861368
PC10   3805.452850  38079.097761  18374.162464    -95.714919
PC11  20716.638805  -3060.080394 -18355.623941   -918.908968
PC12   8292.888072  13150.828738 -23132.597776    761.126327
PC13   -842.706617  22699.174413 -35397.025099    118.355151
PC14  17015.896617   7187.801261  20956.463623     10.673239
PC16 -19899.055497  36210.519485   7939.283904   -675.903747
PC19 -15349.979890   4002.390791 -22935.677692    708.193865
PC20 -16052.853045 -15714.048581 -16527.862440   -911.226807
PC21   7148.420997  26984.613948    -59.886659   -813.447059
PC22  -5761.423630  21982.190257 -16211.882878   -860.449414
PC23  11485.294821 -13001.315615 -21857.918582   -878.134257
PC24  24410.341396  11761.122458   6591.884050   -749.886090
PC25  25375.818748  -1961.495672 -11423.931309   -914.231979
PC26  10311.920059  17007.831132  19549.256763    956.198022
PC27    503.765086 -19539.775454  19911.386725    474.334769
PC28  16592.495084 -21631.417570   5958.574521   -116.022064
PC29 -22493.827794  11899.366917  11446.839117    345.046192
PC30 -15756.241608  -5874.911972  22267.346392    437.609805
PC32  -7310.470406 -26928.702260    116.274557   -887.674737
PC33  15402.874363  -3972.667545  22932.730872   -938.575140
PC34  16253.447282   5283.679607 -22067.876834   -752.329513
PC35 -16005.663728  22121.332741  -5669.333302   -443.370763
PC36 -25563.860922   1136.647387  11160.859512   -766.510664
PC37  -9097.493179 -17279.893678 -19930.842881   -861.689775
PC38 -15933.287227  21079.547312 -32852.367041 999999.999999
PC39 -16695.928140  37618.270577   8838.149836     27.914726
PC40   -907.396704  35534.100369  22810.287705    126.071890
PC41   5934.346956 -21809.060646  16419.963852   -931.982684
PC42  15979.513542  16315.872540  16085.113912   -830.172981
PC43  22605.936884 -11386.899787 -11779.452671   -573.482959
PC44     82.728473  19695.507112 -19756.837059     11.001875
PC45 -11398.532333  12931.085186  21949.408795    347.850250
PC46 -24887.910479 -11243.506595  -5844.568188 999999.999999
PC60   7282.473278  41519.061913   -651.362579     -0.789763
PE01 -24462.197059 -14222.024706   8710.727556  -1034.760318
PE02  24461.349702  14118.372047  -8823.419271    194.497493
PE03  15615.156428   7871.322961  23878.130580   -392.615413
PE04 -17142.744250  14067.083741 -19605.874648   -698.632597
PE05   4904.670475  25502.036505  14201.716791   -308.998395
PE07   8566.109974 -28091.211276   3667.276147   -493.852340
PE08  16890.507215 -14480.815965  19515.822145   6054.992584
PE09  -8304.251825  28197.769774  -3539.781357   5783.350893
PE11 -13790.334680  17877.990601 -19129.946977   6399.354338
PE12 -27566.129500  10586.968308  -1896.847077   5383.031647
PE13  14156.136605 -17841.006677  18922.799695    411.120183
PE14  21650.635489  -1522.140118 -22439.862762  -1311.210456
PE15  27519.123644 -10732.589271   1977.694898    831.966678
PE18 -18392.358577  14615.362895  11079.341582  -1433.196103
PE19 -14649.524151 -10348.540898 -23548.645116    190.293275
PE21 -16002.534792 -23005.887913  -9549.894483   -645.470702
PE24  -2821.017579  18398.809533  22994.184242   -714.866850
PE25  15857.685135  23023.380100   9713.705980   -525.311234
PE26  -8253.302607 -14351.872055  24549.288212   2210.562413
PE27   2055.443388 -18759.230516 -22807.453349     41.206900
PE30  19310.115670  -2772.850594 -22265.565822   3224.714823
PE31 -18815.334969   3503.096102  22588.424100   -477.790974
PE33 -24667.812219  -2707.317239  16142.796552   -465.247072
PE36   7507.068090  14445.381264 -24708.533817    447.882927
PG01   7888.445508  13742.886114 -21613.043598    771.719670
PG02  16062.481769 -14318.938778  16240.013727   -571.145586
PG03  12482.953540  23022.030321  -4829.282569    -68.699137
PG04   1713.383649  21373.717277  15642.700758   -176.333426
PG05   2914.117211 -18134.539850  18970.079735    -32.248315
PG06  25451.189051  -5907.649215   4989.093822     -4.061863
PG07  21941.859948   7710.327654  13594.120739     39.257832
PG08  -3387.036800  24418.396955  -9479.470342     -8.328434
PG09  11298.766954  11529.093338  21023.775627   -317.632989
PG10 -18861.047701  -4849.807347 -18075.170307    -49.704094
PG11      0.000000      0.000000      0.000000 999999.999999
PG12  -8027.257037 -24006.565356  -8540.157354      6.395588
PG13  13027.978129 -23031.934403  -1448.565199     91.142035
PG14  18988.594380   6960.278372 -17231.312004     91.867783
PG15   -124.038376 -24497.592752 -10149.536998   -173.095579
PG16  -5750.551420  16439.144290  19672.604259   -272.071158
PG17  17371.732100  -6532.721604 -18562.710864    386.260016
PG18 -23426.397675  -5860.655012  11120.844163    344.385487
PG19  18496.973137 -13076.048282 -14075.954871    -45.642132
PG20 -21451.411239 -13695.482840  -8123.823277    524.948154
PG21  -1008.927531  15218.774630 -20972.491800     90.945020
PG22   7191.399762  22270.254162 -12517.742966   -689.603060
PG23 -19895.525033 -14261.147404 -10377.578942    117.564392
PG24  -3024.873200 -15600.004500 -21521.486365      3.039191
PG25 -17595.435728 -19645.347027   3977.100329     69.498310
PG26 -13710.687077   7644.927808  21392.856408     36.975233
PG27 -12361.487740  23109.146799   2695.838312    -65.599466
PG28  17493.212118   4558.296759 -18829.711122    623.172500
PG29  -9405.603077 -12512.455143  21412.112373   -284.799553
PG30  26533.848011    166.753658   2852.386961   -376.402917
PG31 -24811.129035   7006.363274   7253.011706    -96.800876
PG32 -17484.959101   7850.865783 -18222.197459     16.590037
PJ01 -20134.168815  28202.778050 -19466.095736   -338.237812
PJ02 -27094.731197  20307.006793  30007.021446      1.215034
PJ03 -33764.248611  25385.797989   5161.993357     -0.325825
PJ07 -25401.868571  33641.919426     13.465717      0.075255
PR01   1468.872265  25405.516778  -1851.098461     74.184637
PR02   9412.172430  15826.235467  17659.613919    464.813892
PR03  10765.010948  -2730.059639  23004.976478     29.981081
PR04   5858.054007 -19473.462294  15428.433231     71.939036
PR05  -2137.294171 -25418.732962   -818.357971     65.576744
PR06 -10190.291021 -14782.535282 -18143.745519    191.809148
PR07 -10667.999697   3322.223206 -22894.476195    -42.282721
PR08  -5880.087623  19508.235329 -15281.626207    -57.117917
PR09 -21723.218880 -12576.869878  -4330.835569  -6034.432507
PR10 -22147.203103  -4002.729433  12067.616602    -65.942312
PR11  -9415.845986   7347.778282  22545.522375      4.053393
PR12   8777.081531  14337.205976  19195.951815    200.572581
PR13  21629.130100  12624.207250   4809.226948    -49.958014
PR14  21731.872264   3515.878417 -12884.664916     60.386400
PR15   9222.996948  -7505.888721 -22550.186241    105.681474
PR16 -10010.674634 -14435.753876 -18579.787551    -10.705645
PR17  21432.492929  -8452.087062 -10895.094865    395.390681
PR18  19057.801213 -15920.940758   5975.512398     64.795876
PR19   7537.747741 -14908.051438  19282.964062   -129.844861
PR20 -11282.885328  -4666.475735  22402.628157   -432.171312
PR21 -21683.785519   9133.681548   9888.843909   -183.789826
PR22 -18496.286548  15988.197976  -7105.856766    -95.015186
PR23   -243.539784  12172.246310 -22414.141990    362.534199
PR24  12208.073853   4360.950699 -21942.379431     29.536402
EOF
